[{"OBJECT_NAME":"TEVEL2-7","OBJECT_ID":"2025-052AE","EPOCH":"2026-03-09T15:52:01.887744","MEAN_MOTION":15.28414096,"ECCENTRICITY":0.00081048,"INCLINATION":97.4054,"RA_OF_ASC_NODE":324.3041,"ARG_OF_PERICENTER":124.683,"MEAN_ANOMALY":235.5175,"EPHEMERIS_TYPE":0,"CLASSIFICATION_TYPE":"U","NORAD_CAT_ID":63238,"ELEMENT_SET_NO":999,"REV_AT_EPOCH":5480,"BSTAR":0.00069668191,"MEAN_MOTION_DOT":0.00019244,"MEAN_MOTION_DDOT":0},{"OBJECT_NAME":"STARLINK-33715","OBJECT_ID":"2025-069J","EPOCH":"2026-03-09T11:52:52.040928","MEAN_MOTION":15.30177054,"ECCENTRICITY":0.00011892,"INCLINATION":53.1577,"RA_OF_ASC_NODE":143.4675,"ARG_OF_PERICENTER":75.5343,"MEAN_ANOMALY":284.579,"EPHEMERIS_TYPE":0,"CLASSIFICATION_TYPE":"U","NORAD_CAT_ID":63441,"ELEMENT_SET_NO":999,"REV_AT_EPOCH":5337,"BSTAR":0.00086347613,"MEAN_MOTION_DOT":0.00025283,"MEAN_MOTION_DDOT":0}]
